start=new Date('2021-10-02T00:00:00.000Z').valueOf();
sats=[{"MEAN_MOTION":"15.71461272","REF_FRAME":"TEME","RCS_SIZE":"LARGE","NORAD_CAT_ID":"45220","GP_ID":"185960271","CLASSIFICATION_TYPE":"U","SITE":"AFETR","CENTER_NAME":"EARTH","MEAN_MOTION_DOT":"0.00003434","LAUNCH_DATE":"2020-02-17","TLE_LINE2":"2 45220  53.0539  63.0411 0001391  31.3834 328.7266 15.71461272 91359","ECCENTRICITY":"0.00013910","APOAPSIS":"355.658","OBJECT_NAME":"STARLINK-1188","ELEMENT_SET_NO":"999","EPOCH":"2021-10-01T19:35:14.822592","BSTAR":"0.00003096500000","TIME_SYSTEM":"UTC","DECAY_DATE":null,"EPHEMERIS_TYPE":"0","TLE_LINE1":"1 45220U 20012AU  21274.81614378  .00003434  00000-0  30965-4 0  9993","INCLINATION":"53.0539","REV_AT_EPOCH":"9135","ARG_OF_PERICENTER":"31.3834","OBJECT_ID":"2020-012AU","SEMIMAJOR_AXIS":"6732.857","PERIOD":"91.634","COUNTRY_CODE":"US","MEAN_MOTION_DDOT":"0.0000000000000","PERIAPSIS":"353.785","RA_OF_ASC_NODE":"63.0411","MEAN_ANOMALY":"328.7266","OBJECT_TYPE":"PAYLOAD","FILE":"3139397","MEAN_ELEMENT_THEORY":"SGP4"},{"DECAY_DATE":null,"TIME_SYSTEM":"UTC","BSTAR":"0.00012282000000","TLE_LINE1":"1 45221U 20012AV  21274.86179307  .00001548  00000-0  12282-3 0  9992","INCLINATION":"53.0550","EPHEMERIS_TYPE":"0","APOAPSIS":"548.577","ELEMENT_SET_NO":"999","EPOCH":"2021-10-01T20:40:58.921248","OBJECT_NAME":"STARLINK-1189","LAUNCH_DATE":"2020-02-17","CENTER_NAME":"EARTH","MEAN_MOTION_DOT":"0.00001548","SITE":"AFETR","ECCENTRICITY":"0.00019720","TLE_LINE2":"2 45221  53.0550  78.3101 0001972 104.8552 255.2656 15.06400867 91253","MEAN_MOTION":"15.06400867","REF_FRAME":"TEME","CLASSIFICATION_TYPE":"U","GP_ID":"185960024","NORAD_CAT_ID":"45221","RCS_SIZE":"LARGE","OBJECT_TYPE":"PAYLOAD","MEAN_ANOMALY":"255.2656","MEAN_ELEMENT_THEORY":"SGP4","FILE":"3139397","PERIAPSIS":"545.845","RA_OF_ASC_NODE":"78.3101","OBJECT_ID":"2020-012AV","SEMIMAJOR_AXIS":"6925.346","ARG_OF_PERICENTER":"104.8552","REV_AT_EPOCH":"9125","MEAN_MOTION_DDOT":"0.0000000000000","COUNTRY_CODE":"US","PERIOD":"95.592"},{"APOAPSIS":"548.901","ELEMENT_SET_NO":"999","EPOCH":"2021-10-01T19:16:03.438912","OBJECT_NAME":"STARLINK-1191","TIME_SYSTEM":"UTC","DECAY_DATE":null,"BSTAR":"0.00018455000000","INCLINATION":"53.0557","TLE_LINE1":"1 45222U 20012AW  21274.80281758  .00002469  00000-0  18455-3 0  9992","EPHEMERIS_TYPE":"0","REF_FRAME":"TEME","MEAN_MOTION":"15.06410763","GP_ID":"185959278","NORAD_CAT_ID":"45222","CLASSIFICATION_TYPE":"U","RCS_SIZE":"LARGE","MEAN_MOTION_DOT":"0.00002469","CENTER_NAME":"EARTH","LAUNCH_DATE":"2020-02-17","SITE":"AFETR","TLE_LINE2":"2 45222  53.0557  78.5798 0002484  92.0344 268.0930 15.06410763 91243","ECCENTRICITY":"0.00024840","OBJECT_TYPE":"PAYLOAD","MEAN_ANOMALY":"268.0930","MEAN_ELEMENT_THEORY":"SGP4","FILE":"3139397","ARG_OF_PERICENTER":"92.0344","SEMIMAJOR_AXIS":"6925.316","OBJECT_ID":"2020-012AW","REV_AT_EPOCH":"9124","PERIOD":"95.591","MEAN_MOTION_DDOT":"0.0000000000000","COUNTRY_CODE":"US","PERIAPSIS":"545.460","RA_OF_ASC_NODE":"78.5798"},{"PERIAPSIS":"545.954","RA_OF_ASC_NODE":"78.7836","REV_AT_EPOCH":"9124","OBJECT_ID":"2020-012AX","SEMIMAJOR_AXIS":"6925.362","ARG_OF_PERICENTER":"94.0765","MEAN_MOTION_DDOT":"0.0000000000000","COUNTRY_CODE":"US","PERIOD":"95.592","OBJECT_TYPE":"PAYLOAD","MEAN_ANOMALY":"266.0434","FILE":"3139397","MEAN_ELEMENT_THEORY":"SGP4","SITE":"AFETR","LAUNCH_DATE":"2020-02-17","CENTER_NAME":"EARTH","MEAN_MOTION_DOT":"-0.00000509","ECCENTRICITY":"0.00018390","TLE_LINE2":"2 45223  53.0548  78.7836 0001839  94.0765 266.0434 15.06395483 91249","REF_FRAME":"TEME","MEAN_MOTION":"15.06395483","RCS_SIZE":"LARGE","CLASSIFICATION_TYPE":"U","GP_ID":"185959527","NORAD_CAT_ID":"45223","BSTAR":"-0.00001527200000","DECAY_DATE":null,"TIME_SYSTEM":"UTC","EPHEMERIS_TYPE":"0","TLE_LINE1":"1 45223U 20012AX  21274.75859350 -.00000509  00000-0 -15272-4 0  9996","INCLINATION":"53.0548","APOAPSIS":"548.501","OBJECT_NAME":"STARLINK-1212","ELEMENT_SET_NO":"999","EPOCH":"2021-10-01T18:12:22.478400"},{"EPHEMERIS_TYPE":"0","TLE_LINE1":"1 45224U 20012AY  21274.77563958  .00012142  00000-0  11239-3 0  9997","INCLINATION":"53.0511","BSTAR":"0.00011239000000","TIME_SYSTEM":"UTC","DECAY_DATE":null,"OBJECT_NAME":"STARLINK-1214","ELEMENT_SET_NO":"999","EPOCH":"2021-10-01T18:36:55.259712","APOAPSIS":"370.157","TLE_LINE2":"2 45224  53.0511  25.9953 0008152 292.0730  67.9420 15.67988295 91868","ECCENTRICITY":"0.00081520","SITE":"AFETR","MEAN_MOTION_DOT":"0.00012142","CENTER_NAME":"EARTH","LAUNCH_DATE":"2020-02-17","RCS_SIZE":"LARGE","NORAD_CAT_ID":"45224","GP_ID":"185959771","CLASSIFICATION_TYPE":"U","MEAN_MOTION":"15.67988295","REF_FRAME":"TEME","FILE":"3139397","MEAN_ELEMENT_THEORY":"SGP4","MEAN_ANOMALY":"67.9420","OBJECT_TYPE":"PAYLOAD","RA_OF_ASC_NODE":"25.9953","PERIAPSIS":"359.163","PERIOD":"91.837","MEAN_MOTION_DDOT":"0.0000000000000","COUNTRY_CODE":"US","REV_AT_EPOCH":"9186","ARG_OF_PERICENTER":"292.0730","SEMIMAJOR_AXIS":"6742.795","OBJECT_ID":"2020-012AY"},{"OBJECT_TYPE":"PAYLOAD","MEAN_ANOMALY":"269.9253","MEAN_ELEMENT_THEORY":"SGP4","FILE":"3139397","OBJECT_ID":"2020-012AZ","SEMIMAJOR_AXIS":"6925.360","ARG_OF_PERICENTER":"90.1979","REV_AT_EPOCH":"9120","COUNTRY_CODE":"US","MEAN_MOTION_DDOT":"0.0000000000000","PERIOD":"95.592","PERIAPSIS":"545.752","RA_OF_ASC_NODE":"78.3853","APOAPSIS":"548.697","EPOCH":"2021-10-01T20:14:26.945088","ELEMENT_SET_NO":"999","OBJECT_NAME":"STARLINK-1215","DECAY_DATE":null,"TIME_SYSTEM":"UTC","BSTAR":"-0.00002648800000","TLE_LINE1":"1 45225U 20012AZ  21274.84336742 -.00000676  00000-0 -26488-4 0  9999","INCLINATION":"53.0547","EPHEMERIS_TYPE":"0","MEAN_MOTION":"15.06396370","REF_FRAME":"TEME","CLASSIFICATION_TYPE":"U","GP_ID":"185960525","NORAD_CAT_ID":"45225","RCS_SIZE":"LARGE","LAUNCH_DATE":"2020-02-17","MEAN_MOTION_DOT":"-0.00000676","CENTER_NAME":"EARTH","SITE":"AFETR","TLE_LINE2":"2 45225  53.0547  78.3853 0002126  90.1979 269.9253 15.06396370 91202","ECCENTRICITY":"0.00021260"},{"FILE":"3139397","MEAN_ELEMENT_THEORY":"SGP4","OBJECT_TYPE":"PAYLOAD","MEAN_ANOMALY":"260.6141","MEAN_MOTION_DDOT":"0.0000000000000","COUNTRY_CODE":"US","PERIOD":"95.593","REV_AT_EPOCH":"9116","SEMIMAJOR_AXIS":"6925.407","OBJECT_ID":"2020-012BA","ARG_OF_PERICENTER":"99.5112","RA_OF_ASC_NODE":"78.3565","PERIAPSIS":"545.654","OBJECT_NAME":"STARLINK-1217","EPOCH":"2021-10-01T20:25:04.026720","ELEMENT_SET_NO":"999","APOAPSIS":"548.889","EPHEMERIS_TYPE":"0","INCLINATION":"53.0548","TLE_LINE1":"1 45226U 20012BA  21274.85074105  .00005695  00000-0  40114-3 0  9998","BSTAR":"0.00040114000000","DECAY_DATE":null,"TIME_SYSTEM":"UTC","RCS_SIZE":"LARGE","CLASSIFICATION_TYPE":"U","GP_ID":"185958778","NORAD_CAT_ID":"45226","MEAN_MOTION":"15.06381060","REF_FRAME":"TEME","ECCENTRICITY":"0.00023360","TLE_LINE2":"2 45226  53.0548  78.3565 0002336  99.5112 260.6141 15.06381060 91168","SITE":"AFETR","LAUNCH_DATE":"2020-02-17","MEAN_MOTION_DOT":"0.00005695","CENTER_NAME":"EARTH"},{"OBJECT_ID":"2020-012BB","SEMIMAJOR_AXIS":"6925.346","ARG_OF_PERICENTER":"92.7430","REV_AT_EPOCH":"9115","MEAN_MOTION_DDOT":"0.0000000000000","COUNTRY_CODE":"US","PERIOD":"95.592","PERIAPSIS":"545.952","RA_OF_ASC_NODE":"78.8674","OBJECT_TYPE":"PAYLOAD","MEAN_ANOMALY":"267.3767","MEAN_ELEMENT_THEORY":"SGP4","FILE":"3139397","REF_FRAME":"TEME","MEAN_MOTION":"15.06400744","CLASSIFICATION_TYPE":"U","NORAD_CAT_ID":"45227","GP_ID":"185959028","RCS_SIZE":"LARGE","LAUNCH_DATE":"2020-02-17","MEAN_MOTION_DOT":"-0.00000193","CENTER_NAME":"EARTH","SITE":"AFETR","ECCENTRICITY":"0.00018180","TLE_LINE2":"2 45227  53.0559  78.8674 0001818  92.7430 267.3767 15.06400744 91157","APOAPSIS":"548.470","EPOCH":"2021-10-01T17:45:49.576032","ELEMENT_SET_NO":"999","OBJECT_NAME":"STARLINK-1221","DECAY_DATE":null,"TIME_SYSTEM":"UTC","BSTAR":"0.00000593290000","TLE_LINE1":"1 45227U 20012BB  21274.74015713 -.00000193  00000-0  59329-5 0  9996","INCLINATION":"53.0559","EPHEMERIS_TYPE":"0"},{"FILE":"3139397","MEAN_ELEMENT_THEORY":"SGP4","OBJECT_TYPE":"PAYLOAD","MEAN_ANOMALY":"262.3718","PERIOD":"95.592","MEAN_MOTION_DDOT":"0.0000000000000","COUNTRY_CODE":"US","REV_AT_EPOCH":"9113","ARG_OF_PERICENTER":"97.7495","OBJECT_ID":"2020-012BC","SEMIMAJOR_AXIS":"6925.339","RA_OF_ASC_NODE":"78.5358","PERIAPSIS":"545.837","OBJECT_NAME":"STARLINK-1222","EPOCH":"2021-10-01T19:26:40.303680","ELEMENT_SET_NO":"999","APOAPSIS":"548.571","EPHEMERIS_TYPE":"0","TLE_LINE1":"1 45228U 20012BC  21274.81018870  .00000654  00000-0  62777-4 0  9993","INCLINATION":"53.0546","BSTAR":"0.00006277700000","TIME_SYSTEM":"UTC","DECAY_DATE":null,"RCS_SIZE":"LARGE","NORAD_CAT_ID":"45228","GP_ID":"185960272","CLASSIFICATION_TYPE":"U","MEAN_MOTION":"15.06403128","REF_FRAME":"TEME","ECCENTRICITY":"0.00019740","TLE_LINE2":"2 45228  53.0546  78.5358 0001974  97.7495 262.3718 15.06403128 91137","SITE":"AFETR","CENTER_NAME":"EARTH","MEAN_MOTION_DOT":"0.00000654","LAUNCH_DATE":"2020-02-17"},{"PERIOD":"95.592","COUNTRY_CODE":"US","MEAN_MOTION_DDOT":"0.0000000000000","ARG_OF_PERICENTER":"89.8614","SEMIMAJOR_AXIS":"6925.360","OBJECT_ID":"2020-012BD","REV_AT_EPOCH":"9113","RA_OF_ASC_NODE":"78.6927","PERIAPSIS":"545.845","MEAN_ELEMENT_THEORY":"SGP4","FILE":"3139397","MEAN_ANOMALY":"270.2603","OBJECT_TYPE":"PAYLOAD","GP_ID":"185960025","NORAD_CAT_ID":"45229","CLASSIFICATION_TYPE":"U","RCS_SIZE":"LARGE","MEAN_MOTION":"15.06396188","REF_FRAME":"TEME","ECCENTRICITY":"0.00019930","TLE_LINE2":"2 45229  53.0557  78.6927 0001993  89.8614 270.2603 15.06396188 91137","MEAN_MOTION_DOT":"-0.00000519","CENTER_NAME":"EARTH","LAUNCH_DATE":"2020-02-17","SITE":"AFETR","ELEMENT_SET_NO":"999","EPOCH":"2021-10-01T18:33:36.422208","OBJECT_NAME":"STARLINK-1226","APOAPSIS":"548.605","INCLINATION":"53.0557","TLE_LINE1":"1 45229U 20012BD  21274.77333822 -.00000519  00000-0 -15945-4 0  9993","EPHEMERIS_TYPE":"0","TIME_SYSTEM":"UTC","DECAY_DATE":null,"BSTAR":"-0.00001594500000"}];
